{"fetched_at":"2026-03-29T02:12:04Z","count":15717,"tles":[{"name":"ZHONGXING-26","line1":"1 55686U 23023A   26086.42866575 -.00000372  00000+0  00000+0 0  9996","line2":"2 55686   0.0682  65.8691 0003902 338.9574  59.4502  1.00269869 11419","category":"Other"}]}